BEESAT-4                
1 41619U 16040W   21254.11245380  .00003650  00000-0  14459-3 0  9990
2 41619  97.2612 307.7898 0011374  37.0856 323.1166 15.25974962278073
CAS-2T & KS-1Q          
1 41847U 16066G   21253.76869338  .00000107  00000-0  27116-4 0  9995
2 41847  98.5934 313.2160 0364486 325.8626  31.9595 14.38233860254149
NAYIF-1 (EO-88)         
1 42017U 17008BX  21253.67069637  .00004212  00000-0  15361-3 0  9995
2 42017  97.3086 319.7404 0006669 152.0610 208.0989 15.28680840254277
ZHUHAI-1 02 (CAS-4B)    
1 42759U 17034B   21254.01765275  .00000791  00000-0  60681-4 0  9991
2 42759  43.0173  70.6320 0009346 334.9045 170.5739 15.10353270234081
ZHUHAI-1 01 (CAS-4A)    
1 42761U 17034D   21254.00321985  .00000706  00000-0  55432-4 0  9993
2 42761  43.0176  69.7032 0009662 336.0357 167.0812 15.10440695234087
MAX VALIER SAT          
1 42778U 17036P   21253.67415608  .00002058  00000-0  87962-4 0  9996
2 42778  97.2477 299.4705 0010387 229.8018 130.2312 15.23904851234268
RADFXSAT (FOX-1B)       
1 43017U 17073E   21253.67818777  .00001936  00000-0  15274-3 0  9998
2 43017  97.6970 154.2525 0255157  22.5962 338.6249 14.79713685205722
FOX-1D (AO-92)          
1 43137U 18004AC  21253.87230692  .00002600  00000-0  10520-3 0  9990
2 43137  97.4006 327.0230 0007024 269.6040  90.4393 15.25587664203689
DIWATA-2B               
1 43678U 18084H   21254.24341368  .00000178  00000-0  23383-4 0  9993
2 43678  97.9344  20.0176 0011086 123.1621 237.0705 14.91784639156226
ES'HAIL 2               
1 43700U 18090A   21253.86438272  .00000137  00000-0  00000-0 0  9996
2 43700   0.0171 197.7840 0002010 356.5909 132.7096  1.00269702 10221
FOX-1CLIFF (AO-95)      
1 43770U 18099N   21253.69913065  .00000287  00000-0  31042-4 0  9991
2 43770  97.6586 321.9796 0015650 129.0774 231.1842 14.95418798151192
ITASAT 1                
1 43786U 18099AE  21253.73577193  .00000933  00000-0  88714-4 0  9997
2 43786  97.6604 322.7528 0016520 123.0535 237.2276 14.95698335151238
JY1SAT (JO-97)          
1 43803U 18099AX  21253.88571561  .00000985  00000-0  92753-4 0  9991
2 43803  97.6570 322.6423 0016514 121.7632 238.5201 14.95967675151260
UWE-4                   
1 43880U 18111E   21253.74503994  .00000900  00000-0  83177-4 0  9998
2 43880  97.6782 159.9959 0012351 171.4913 188.6521 14.96968784147846
NEXUS (FO-99)           
1 43937U 19003F   21253.89815524  .00003369  00000-0  13204-3 0  9998
2 43937  97.1692 293.6431 0024630  71.2069 289.1839 15.26152526147298
PSAT2 (NO-104)          
1 44354U 19036R   21253.41799117  .00014751  00000-0  18700-3 0  9998
2 44354  28.5258 279.3654 0315309 119.1899 244.0617 15.16257552121868
BRICSAT2 (NO-103)       
1 44355U 19036S   21253.23699078  .00034843 -60510-5  33381-3 0  9998
2 44355  28.5259 220.2210 0241597 215.5529 142.8752 15.35568848122445
JAISAT-1                
1 44419U 19038F   21253.90299283  .00002548  00000-0  14319-3 0  9998
2 44419  97.5969 218.3389 0021580  22.3029 337.9136 15.14034392120723
DUCHIFAT-3              
1 44854U 19089C   21254.22362705  .00000770  00000-0  67722-4 0  9995
2 44854  36.9685 313.3669 0007037 107.8724 252.2822 14.99614509 95983
CAS-6 (TO-108)          
1 44881U 19093C   21254.11034679  .00000082  00000-0  17239-4 0  9998
2 44881  97.9201 331.9906 0015727  19.5347 340.6471 14.81478082 93412
RS-44 & BREEZE-KM R/B   
1 44909U 19096E   21253.84538978  .00000007  00000-0 -75441-5 0  9990
2 44909  82.5199  56.0600 0216456 253.3865 104.3369 12.79710838 79744
ORBITAL FACTORY 2 (OF-2)
1 45113U 19071C   21253.63119367  .00005097  00000-0  15149-3 0  9995
2 45113  51.6431 344.3202 0011140 241.7253 118.2606 15.36471993 90264
HUSKYSAT-1 (HO-107)     
1 45119U 19071J   21254.09774937  .00004758  00000-0  14228-3 0  9992
2 45119  51.6427 341.4279 0010551 239.7144 120.2796 15.36449255 90335
BY70-2                  
1 45857U 20042B   21254.13177284  .00001320  00000-0  19338-3 0  9997
2 45857  97.9812 328.9892 0009436 300.9982  59.0311 14.77260238 64190
SALSAT                  
1 46495U 20068K   21253.91521740  .00000515  00000-0  42206-4 0  9995
2 46495  97.6937 190.9212 0016915 139.8420 220.4064 15.03529308 52173
BY70-3                  
1 46839U 20079N   21254.16133360  .00004888  00000-0  14943-3 0  9997
2 46839  97.2350 326.3240 0005427 252.8464 191.6727 15.34312934 47343
RADFXSAT-2 (AO-109)     
1 47311U 21002C   21253.64018281  .00002169  00000-0  10431-3 0  9994
2 47311  60.6864 332.2348 0041663  91.2543 269.3317 15.21962191 35834
UVSQ-SAT                
1 47438U 21006AB  21253.81554708  .00001533  00000-0  89509-4 0  9993
2 47438  97.4797 313.4871 0013321 156.9795 203.2036 15.13342761 34961
DIY-1 (ARDUIQUBE)       
1 47963U 21022AH  21253.65871375  .00004108  00000-0  27218-3 0  9997
2 47963  97.5492 154.4691 0020405  18.9974 341.2011 15.07683969 24738
